HST                     
1 20580U 90037B   24154.12690863  .00006453  00000+0  30339-3 0  9993
2 20580  28.4684  86.0170 0002433 230.7982 129.2394 15.17542954675005
POLAR                   
1 23802U 96013A   24153.49436614  .00000180  00000+0  00000+0 0  9993
2 23802  79.1124 234.7998 5869074 234.2984  56.1188  1.29847197135156
SWAS                    
1 25560U 98071A   24153.95403790  .00004087  00000+0  33343-3 0  9992
2 25560  69.8991 337.1642 0008795 299.1235  60.9043 15.00217461385362
CXO                     
1 25867U 99040B   24154.63990659  .00000428  00000+0  00000+0 0  9995
2 25867  40.8075 155.2457 8907848 295.3889   0.0934  0.37811928 14506
XMM-NEWTON              
1 25989U 99066A   24152.33259219 -.00000003  00000+0  00000+0 0  9993
2 25989  67.8579 293.1200 5160831  77.4084 333.6655  0.50132655 33620
TERRA                   
1 25994U 99068A   24154.13977449  .00000706  00000+0  15716-3 0  9996
2 25994  98.0485 218.0690 0003158  69.8078 319.8210 14.59787116300978
CLUSTER II-FM7 (SAMBA)  
1 26410U 00041A   24155.76922056  .00001091  00000+0  00000+0 0  9991
2 26410 139.1592 358.1450 7456150 213.0822 359.9931  0.44241089 16982
CLUSTER II-FM6 (SALSA)  
1 26411U 00041B   24155.69587438  .00003240  00000+0  00000+0 0  9993
2 26411 148.2906  24.7371 8986682 239.9951   0.0716  0.44252251 17046
CLUSTER II-FM5 (RUMBA)  
1 26463U 00045A   24155.75468505  .00002750  00000+0  00000+0 0  9999
2 26463 150.2815  18.9666 8517186 234.3966 359.9845  0.44230449 16910
CLUSTER II-FM8 (TANGO)  
1 26464U 00045B   24155.76927953  .00001093  00000+0  00000+0 0  9997
2 26464 139.1882 358.1612 7452771 213.0976   0.0101  0.44217889 16993
ODIN                    
1 26702U 01007A   24153.56260890  .00009726  00000+0  42804-3 0  9990
2 26702  97.4826 168.8112 0006658 354.1785   5.9373 15.22044553274528
TIMED                   
1 26998U 01055B   24153.81976761  .00001934  00000+0  19764-3 0  9991
2 26998  74.0705 291.9475 0001711 309.3935  50.7096 14.91363071219675
INTEGRAL                
1 27540U 02048A   24152.90816024  .00000057  00000+0  00000+0 0  9996
2 27540  89.0715  21.5191 8656105 282.5021 352.2236  0.37579378 23827
CORIOLIS                
1 27640U 03001A   24153.57859723  .00000185  00000+0  10851-3 0  9995
2 27640  98.7127 161.0487 0013795 195.3999 164.6759 14.19473972108422
SORCE                   
1 27651U 03004A   24154.19876141  .00002970  00000+0  27828-3 0  9998
2 27651  39.9916 167.7259 0019991 134.0042 226.2400 14.95074855160023
MOST                    
1 27843U 03031D   24153.56507222  .00000136  00000+0  82823-4 0  9991
2 27843  98.7058 160.7648 0008896 241.8979 118.1299 14.20961612 84809
SCISAT 1                
1 27858U 03036A   24153.58131818  .00000873  00000+0  12236-3 0  9996
2 27858  73.9322 210.6299 0006173  79.5899 280.5971 14.79187079121101
SWIFT                   
1 28485U 04047A   24153.60844010  .00011987  00000+0  53384-3 0  9991
2 28485  20.5562 292.7288 0009452  73.5496 286.5979 15.18792522 71805
CALIPSO                 
1 29108U 06016B   24154.20335098  .00001531  00000+0  29043-3 0  9999
2 29108  98.4177 135.7000 0001755  89.6489 270.4915 14.65739168963776
HINODE (SOLAR-B)        
1 29479U 06041A   24153.65197229  .00001238  00000+0  23205-3 0  9996
2 29479  98.0891 169.2004 0019258 127.5325 232.7633 14.66413503945513
SHIJIAN-6 02A (SJ-6 02A)
1 29505U 06046A   24154.17053396  .00005694  00000+0  42510-3 0  9995
2 29505  97.7201 181.3049 0004493 155.5862 204.5576 15.03220780959906
SHIJIAN-6 02B (SJ-6 02B)
1 29506U 06046B   24154.21153999  .00002510  00000+0  22163-3 0  9997
2 29506  97.7389 179.2584 0002185  46.2219 313.9184 14.97275988959094
FGRST (GLAST)           
1 33053U 08029A   24153.57922445  .00004215  00000+0  19346-3 0  9993
2 33053  25.5828 316.5005 0010074 207.2049 152.7960 15.16719115882209
WISE                    
1 36119U 09071A   24154.09098187  .00053120  00000+0  58170-3 0  9999
2 36119  97.1465 190.4939 0003255 147.0394 213.1069 15.63117588805901
SDO                     
1 36395U 10005A   24153.37380500 -.00000060  00000+0  00000+0 0  9998
2 36395  33.0941  97.8365 0001041 218.8486 326.5030  1.00271178 52585
CRYOSAT 2               
1 36508U 10013A   24153.57385690  .00000251  00000+0  61703-4 0  9993
2 36508  92.0339  97.2313 0002948  29.0425 331.0946 14.51897170749896
X-SAT                   
1 37389U 11015C   24154.16876361  .00000220  00000+0  11186-3 0  9995
2 37389  98.2929 158.9806 0014468  16.6675 343.4978 14.24701469682093
GCOM-W1 (SHIZUKU)       
1 38337U 12025A   24153.42834837  .00000866  00000+0  20251-3 0  9990
2 38337  98.2027  93.6922 0001833  89.3883  21.5739 14.57070275640431
NUSTAR                  
1 38358U 12031A   24153.58334491  .00020530  00000+0  17011-2 0  9997
2 38358   6.0260 178.1181 0011226 265.6085 115.8682 14.96152678  1308
NEOSSAT                 
1 39089U 13009D   24153.49678520  .00000275  00000+0  11116-3 0  9994
2 39089  98.4048 341.2754 0010254 313.6108  46.4226 14.35167705589751
BRITE-AUSTRIA           
1 39091U 13009F   24153.50369050  .00000300  00000+0  11848-3 0  9995
2 39091  98.3859 341.4931 0009439 311.3916  48.6458 14.35803102590017
IRIS                    
1 39197U 13033A   24153.83873963  .00001720  00000+0  22273-3 0  9999
2 39197  97.9646 344.5594 0025047 228.9910 130.9137 14.81968343589839
HISAKI (SPRINT-A)       
1 39253U 13049A   24153.84352621  .00000163  00000+0  13447-3 0  9996
2 39253  29.7210  48.9891 0136794  94.9238 266.6966 13.55397088531266
CASSIOPE                
1 39265U 13055A   24153.58022127  .00017757  00000+0  37512-3 0  9998
2 39265  80.9552 213.1652 0497868 315.6030  40.6242 14.69813788556106
STSAT-3                 
1 39422U 13066G   24154.16371318  .00004207  00000+0  38981-3 0  9996
2 39422  97.5190 134.2855 0022589  54.1092 306.2222 14.94805076572575
SWARM B                 
1 39451U 13067A   24153.56897189  .00003837  00000+0  17557-3 0  9995
2 39451  87.7540 207.1705 0002993  96.1794 263.9792 15.20236210569624
SWARM A                 
1 39452U 13067B   24153.53322597  .00006423  00000+0  20522-3 0  9999
2 39452  87.3419 328.7424 0003129 102.5209 257.6392 15.32258189591363
SWARM C                 
1 39453U 13067C   24153.53312113  .00006557  00000+0  20951-3 0  9997
2 39453  87.3416 327.3353 0003125 102.8655 257.2945 15.32258587591329
BRITE-CA1 (TORONTO)     
1 40020U 14033L   24153.90377947  .00001916  00000+0  31495-3 0  9999
2 40020  97.8754 291.5671 0084081 140.3184 220.4216 14.69387567532734
OCO 2                   
1 40059U 14035A   24153.60982819  .00000970  00000+0  22567-3 0  9999
2 40059  98.2021  94.6268 0001521  65.2797 294.8560 14.57049131527476
BRITE-PL2 (HEWELIUSZ)   
1 40119U 14049B   24154.23028145  .00002765  00000+0  30064-3 0  9999
2 40119  97.8817 253.9652 0016882  57.1545 303.1294 14.88803766530440
RESURS-P 2              
1 40360U 14087A   24154.17052718  .00029120  00000+0  38125-3 0  9995
2 40360  97.1515 240.6441 0005242   3.8349 356.2947 15.58547130528723
MMS 1                   
1 40482U 15011A   24154.25001157 -.00000189  00000+0  00000+0 0  9990
2 40482  47.3109  12.1352 9100129 145.9318  40.6616  0.28391374 15333
MMS 2                   
1 40483U 15011B   24154.25001157 -.00000189  00000+0  00000+0 0  9991
2 40483  47.3050  12.1292 9100171 145.9387  40.6580  0.28391393 15314
MMS 3                   
1 40484U 15011C   24154.25001157 -.00000189  00000+0  00000+0 0  9992
2 40484  47.3108  12.1313 9100724 145.9412  40.6412  0.28391359 15312
MMS 4                   
1 40485U 15011D   24154.25001157 -.00000189  00000+0  00000+0 0  9993
2 40485  47.3072  12.1364 9099597 145.9373  40.6406  0.28391358 15312
ASTROSAT                
1 40930U 15052A   24154.22150953  .00002047  00000+0  18477-3 0  9994
2 40930   5.9966 106.0893 0008831 224.0606 135.8818 14.78944596469246
DAMPE                   
1 41173U 15078A   24154.19124245  .00001715  00000+0  67180-4 0  9990
2 41173  97.4294 147.7863 0012539 187.5643 172.5409 15.27110086470698
PISAT                   
1 41784U 16059B   24153.65882599  .00001540  00000+0  28805-3 0  9997
2 41784  97.8343 176.3776 0031993  64.3332 296.1171 14.65883325410381
HXMT (HUIYAN)           
1 42758U 17034A   24154.06180748  .00007602  00000+0  42005-3 0  9999
2 42758  43.0156 358.5204 0013232  58.3237 301.8899 15.14216423384566
FLYING LAPTOP           
1 42831U 17042G   24153.58784773  .00003107  00000+0  28790-3 0  9995
2 42831  97.3859 335.4394 0014277 125.6664 234.5889 14.95073558374801
ZHANGHENG 1 (CSES)      
1 43194U 18015C   24154.21017340  .00013240  00000+0  60354-3 0  9990
2 43194  97.6077 297.7845 0013116 188.0959 172.0067 15.20706108351410
SALSAT                  
1 46495U 20068K   24153.46823545  .00006491  00000+0  37149-3 0  9992
2 46495  97.8151 112.3682 0014250  16.1959 343.9723 15.12921574201930
IXPE                    
1 49954U 21121A   24153.58334491  .00004035  00000+0  26500-3 0  9997
2 49954   0.2296 148.9996 0008967  48.2898 202.6508 14.98049398  5741
